NORAD_CAT_ID,OBJECT_NAME,OBJECT_TYPE,EPOCH,MEAN_MOTION,ECCENTRICITY,INCLINATION,RA_OF_ASC_NODE,ARG_OF_PERICENTER,MEAN_ANOMALY,BSTAR,MEAN_MOTION_DOT,MEAN_MOTION_DDOT,TLE_LINE0,TLE_LINE1,TLE_LINE2,SEMIMAJOR_AXIS,PERIOD,APOGEE,PERIGEE,DECAYED
52105.0,STARLINK-3706,PAYLOAD,2024-02-20 18:44:03,15.0884189,0.0001576,53.2168,196.6082,69.969,290.1472,0.00012713,1.736e-05,0.0,0 STARLINK-3706,1 52105U 22029T   24051.78059702  .00001736  00000-0  12713-3 0  9992,2 52105  53.2168 196.6082 0001576  69.9690 290.1472 15.08841890107872,6917.875,95.437,540.83,538.649,0.0
52105.0,STARLINK-3706,PAYLOAD,2024-02-21 15:24:04,15.08841544,0.000154,53.2159,192.7453,86.2866,273.8302,0.00019883,2.878e-05,0.0,0 STARLINK-3706,1 52105U 22029T   24052.64171823  .00002878  00000-0  19883-3 0  9990,2 52105  53.2159 192.7453 0001540  86.2866 273.8302 15.08841544108001,6917.876,95.437,540.806,538.675,0.0
52105.0,STARLINK-3706,PAYLOAD,2024-02-21 16:59:27,15.08846838,0.0001368,53.2154,192.4495,85.0518,275.0631,0.00021849,3.192e-05,0.0,0 STARLINK-3706,1 52105U 22029T   24052.70795521  .00003192  00000-0  21849-3 0  9999,2 52105  53.2154 192.4495 0001368  85.0518 275.0631 15.08846838108019,6917.859,95.437,540.671,538.778,0.0
52105.0,STARLINK-3706,PAYLOAD,2024-02-22 08:53:19,15.08838779,0.0001575,53.2175,189.4731,81.7313,278.3858,0.00011786,1.588e-05,0.0,0 STARLINK-3706,1 52105U 22029T   24053.37036151  .00001588  00000-0  11786-3 0  9996,2 52105  53.2175 189.4731 0001575  81.7313 278.3858 15.08838779108110,6917.884,95.438,540.839,538.66,0.0
52105.0,STARLINK-3706,PAYLOAD,2024-02-22 13:39:28,15.08842168,0.0001552,53.2176,188.5845,78.7739,281.3427,0.00013217,1.816e-05,0.0,0 STARLINK-3706,1 52105U 22029T   24053.56908035  .00001816  00000-0  13217-3 0  9991,2 52105  53.2176 188.5845 0001552  78.7739 281.3427 15.08842168108146,6917.874,95.437,540.812,538.665,0.0
52105.0,STARLINK-3706,PAYLOAD,2024-02-22 15:14:51,15.08845117,0.0001668,53.2175,188.2867,70.8293,289.288,0.00011119,1.482e-05,0.0,0 STARLINK-3706,1 52105U 22029T   24053.63531886  .00001482  00000-0  11119-3 0  9993,2 52105  53.2175 188.2867 0001668  70.8293 289.2880 15.08845117108150,6917.865,95.437,540.884,538.576,0.0
52105.0,STARLINK-3706,PAYLOAD,2024-02-23 11:54:52,15.08842562,0.0001558,53.2176,184.4211,95.9881,264.1289,8.8968e-06,-1.46e-06,0.0,0 STARLINK-3706,1 52105U 22029T   24054.49643938 -.00000146  00000-0  88968-5 0  9995,2 52105  53.2176 184.4211 0001558  95.9881 264.1289 15.08842562108281,6917.873,95.437,540.815,538.66,0.0
52105.0,STARLINK-3706,PAYLOAD,2024-02-23 13:30:15,15.08842709,0.0001453,53.217,184.1242,87.2811,272.8348,3.4724e-05,2.65e-06,0.0,0 STARLINK-3706,1 52105U 22029T   24054.56267987  .00000265  00000-0  34724-4 0  9990,2 52105  53.2170 184.1242 0001453  87.2811 272.8348 15.08842709108293,6917.872,95.437,540.742,538.732,0.0
52105.0,STARLINK-3706,PAYLOAD,2024-02-23 18:16:24,15.08847552,0.0001612,53.2173,183.2298,107.9292,252.1876,8.8655e-05,1.123e-05,0.0,0 STARLINK-3706,1 52105U 22029T   24054.76139588  .00001123  00000-0  88655-4 0  9993,2 52105  53.2173 183.2298 0001612 107.9292 252.1876 15.08847552108329,6917.857,95.437,540.837,538.607,0.0
52105.0,STARLINK-3706,PAYLOAD,2024-02-24 14:56:25,15.08850831,0.0001415,53.2167,179.3622,96.306,263.8094,0.00026753,3.974e-05,0.0,0 STARLINK-3706,1 52105U 22029T   24055.62251548  .00003974  00000-0  26753-3 0  9996,2 52105  53.2167 179.3622 0001415  96.3060 263.8094 15.08850831108453,6917.847,95.437,540.691,538.733,0.0
52105.0,STARLINK-3706,PAYLOAD,2024-02-25 13:11:49,15.08844062,0.0001448,53.2168,175.2042,88.0714,272.0444,8.0137e-05,9.88e-06,0.0,0 STARLINK-3706,1 52105U 22029T   24056.54987782  .00000988  00000-0  80137-4 0  9993,2 52105  53.2168 175.2042 0001448  88.0714 272.0444 15.08844062108590,6917.868,95.437,540.735,538.731,0.0
52105.0,STARLINK-3706,PAYLOAD,2024-02-25 14:47:12,15.08850674,0.0001321,53.2161,174.9034,89.6874,270.4269,0.00016117,2.279e-05,0.0,0 STARLINK-3706,1 52105U 22029T   24056.61611349  .00002279  00000-0  16117-3 0  9995,2 52105  53.2161 174.9034 0001321  89.6874 270.4269 15.08850674108609,6917.848,95.437,540.627,538.799,0.0
52105.0,STARLINK-3706,PAYLOAD,2024-02-25 17:57:58,15.08853971,0.0001409,53.2165,174.3073,87.6685,272.4469,0.00023871,3.515e-05,0.0,0 STARLINK-3706,1 52105U 22029T   24056.74859178  .00003515  00000-0  23871-3 0  9992,2 52105  53.2165 174.3073 0001409  87.6685 272.4469 15.08853971108624,6917.838,95.437,540.677,538.728,0.0
52105.0,STARLINK-3706,PAYLOAD,2024-02-26 00:19:31,15.08845901,0.0001335,53.2158,173.1166,79.9908,280.1235,9.6423e-05,1.247e-05,0.0,0 STARLINK-3706,1 52105U 22029T   24057.01355387  .00001247  00000-0  96423-4 0  9990,2 52105  53.2158 173.1166 0001335  79.9908 280.1235 15.08845901108661,6917.862,95.437,540.651,538.804,0.0
52105.0,STARLINK-3706,PAYLOAD,2024-02-26 11:27:14,15.08826368,0.0001573,53.2174,171.0423,93.9803,266.1369,-0.00018791,-3.276e-05,0.0,0 STARLINK-3706,1 52105U 22029T   24057.47724755 -.00003276  00000-0 -18791-3 0  9996,2 52105  53.2174 171.0423 0001573  93.9803 266.1369 15.08826368108732,6917.922,95.438,540.875,538.699,0.0
52105.0,STARLINK-3706,PAYLOAD,2024-02-26 14:38:00,15.08829557,0.0001594,53.2181,170.4475,94.9553,265.1621,-6.8621e-05,-1.38e-05,0.0,0 STARLINK-3706,1 52105U 22029T   24057.60973296 -.00001380  00000-0 -68621-4 0  9999,2 52105  53.2181 170.4475 0001594  94.9553 265.1621 15.08829557108751,6917.912,95.438,540.88,538.675,0.0
52105.0,STARLINK-3706,PAYLOAD,2024-02-26 17:48:47,15.08832202,0.0001522,53.2186,169.8524,86.1838,273.9329,-2.7638e-05,-7.28e-06,0.0,0 STARLINK-3706,1 52105U 22029T   24057.74221146 -.00000728  00000-0 -27638-4 0  9992,2 52105  53.2186 169.8524 0001522  86.1838 273.9329 15.08832202108778,6917.904,95.438,540.822,538.716,0.0
52105.0,STARLINK-3706,PAYLOAD,2024-02-27 11:18:03,15.08818357,9.72e-05,53.2174,166.5818,22.3018,337.8016,-0.00015936,-2.821e-05,0.0,0 STARLINK-3706,1 52105U 22029T   24058.47086914 -.00002821  00000-0 -15936-3 0  9998,2 52105  53.2174 166.5818 0000972  22.3018 337.8016 15.08818357108885,6917.947,95.439,540.484,539.139,0.0
52105.0,STARLINK-3706,PAYLOAD,2024-02-27 14:28:49,15.08813068,0.0001226,53.2168,165.9826,75.9515,284.1614,-0.0002429,-4.149e-05,0.0,0 STARLINK-3706,1 52105U 22029T   24058.60335513 -.00004149  00000-0 -24290-3 0  9993,2 52105  53.2168 165.9826 0001226  75.9515 284.1614 15.08813068108904,6917.963,95.439,540.676,538.98,0.0
52105.0,STARLINK-3706,PAYLOAD,2024-02-28 00:01:07,15.088308,0.0001204,53.2171,164.1993,78.4447,281.668,-0.00010317,-1.929e-05,0.0,0 STARLINK-3706,1 52105U 22029T   24059.00078436 -.00001929  00000-0 -10317-3 0  9994,2 52105  53.2171 164.1993 0001204  78.4447 281.6680 15.08830800108966,6917.909,95.438,540.606,538.941,0.0
52105.0,STARLINK-3706,PAYLOAD,2024-02-28 12:44:11,15.08844725,0.000157,53.2175,161.819,66.2748,293.8409,0.00023108,3.392e-05,0.0,0 STARLINK-3706,1 52105U 22029T   24059.53069271  .00003392  00000-0  23108-3 0  9995,2 52105  53.2175 161.8190 0001570  66.2748 293.8409 15.08844725109043,6917.866,95.437,540.817,538.645,0.0
52105.0,STARLINK-3706,PAYLOAD,2024-02-28 14:19:34,15.08846967,0.0001491,53.2175,161.5216,67.5552,292.5598,0.00024682,3.643e-05,0.0,0 STARLINK-3706,1 52105U 22029T   24059.59693053  .00003643  00000-0  24682-3 0  9999,2 52105  53.2175 161.5216 0001491  67.5552 292.5598 15.08846967109054,6917.859,95.437,540.756,538.693,0.0
52105.0,STARLINK-3706,PAYLOAD,2024-02-28 15:54:57,15.08853232,0.0001243,53.2168,161.2237,67.7232,292.3891,0.00030249,4.531e-05,0.0,0 STARLINK-3706,1 52105U 22029T   24059.66316479  .00004531  00000-0  30249-3 0  9994,2 52105  53.2168 161.2237 0001243  67.7232 292.3891 15.08853232109066,6917.84,95.437,540.565,538.845,0.0
52105.0,STARLINK-3706,PAYLOAD,2024-02-29 12:34:58,15.08836244,0.0001119,53.2175,157.3596,78.4815,281.6303,0.00037519,5.688e-05,0.0,0 STARLINK-3706,1 52105U 22029T   24060.52429250  .00005688  00000-0  37519-3 0  9994,2 52105  53.2175 157.3596 0001119  78.4815 281.6303 15.08836244109193,6917.892,95.438,540.531,538.983,0.0
52105.0,STARLINK-3706,PAYLOAD,2024-02-29 14:10:21,15.0883822,0.0001295,53.2179,157.0651,67.9964,292.1166,0.00039272,5.967e-05,0.0,0 STARLINK-3706,1 52105U 22029T   24060.59053018  .00005967  00000-0  39272-3 0  9994,2 52105  53.2179 157.0651 0001295  67.9964 292.1166 15.08838220109201,6917.886,95.438,540.647,538.855,0.0
52105.0,STARLINK-3706,PAYLOAD,2024-03-01 12:25:45,15.08848898,0.0001024,53.2166,152.9012,64.8235,295.2864,2.0351e-05,3.6e-07,0.0,0 STARLINK-3706,1 52105U 22029T   24061.51788896  .00000036  00000-0  20351-4 0  9997,2 52105  53.2166 152.9012 0001024  64.8235 295.2864 15.08848898109345,6917.853,95.437,540.427,539.01,0.0
52105.0,STARLINK-3706,PAYLOAD,2024-03-02 12:16:31,15.08854454,0.0001402,53.2169,148.4402,73.5083,286.6063,-2.3568e-05,-6.63e-06,0.0,0 STARLINK-3706,1 52105U 22029T   24062.51147969 -.00000663  00000-0 -23568-4 0  9999,2 52105  53.2169 148.4402 0001402  73.5083 286.6063 15.08854454109495,6917.836,95.437,540.671,538.731,0.0
52105.0,STARLINK-3706,PAYLOAD,2024-03-03 05:45:47,15.08821361,0.000154,53.2176,145.1697,85.8414,274.2754,0.00023688,3.482e-05,0.0,0 STARLINK-3706,1 52105U 22029T   24063.24013213  .00003482  00000-0  23688-3 0  9996,2 52105  53.2176 145.1697 0001540  85.8414 274.2754 15.08821361109604,6917.937,95.439,540.868,538.737,0.0
52105.0,STARLINK-3706,PAYLOAD,2024-03-03 12:07:19,15.08833778,0.0001509,53.2178,143.9785,91.343,268.7735,1.8912e-06,-2.58e-06,0.0,0 STARLINK-3706,1 52105U 22029T   24063.50508988 -.00000258  00000-0  18912-5 0  9998,2 52105  53.2178 143.9785 0001509  91.3430 268.7735 15.08833778109641,6917.899,95.438,540.808,538.72,0.0
52105.0,STARLINK-3706,PAYLOAD,2024-03-04 05:36:33,15.08832955,0.0001396,53.2173,140.7052,97.2994,262.8157,0.00017562,2.508e-05,0.0,0 STARLINK-3706,1 52105U 22029T   24064.23372208  .00002508  00000-0  17562-3 0  9990,2 52105  53.2173 140.7052 0001396  97.2994 262.8157 15.08832955109753,6917.902,95.438,540.733,538.801,0.0
